TWILIGHT V              
1 67382U 26004V   26027.61855874  .00004926  00000+0  54242-3 0  9999
2 67382  97.8002  28.5236 0003672 207.4066 152.6957 14.88003006  2381
TWILIGHT W              
1 67383U 26004W   26027.55425553  .00004906  00000+0  54391-3 0  9993
2 67383  97.7978  28.4511 0004031 227.2349 132.8529 14.87726416  2372
TWILIGHT X              
1 67384U 26004X   26027.61746083  .00009965  00000+0  10853-2 0  9999
2 67384  97.7978  28.5224 0003075 207.1721 152.9335 14.88196947  2383
TWILIGHT Y              
1 67385U 26004Y   26027.61655421  .00010036  00000+0  10908-2 0  9997
2 67385  97.7989  28.5248 0002996 200.1941 159.9158 14.88277986  2383
TWILIGHT Z              
1 67386U 26004Z   26027.61515380  .00004527  00000+0  49526-3 0  9994
2 67386  97.7969  28.5255 0001884 196.5393 163.5762 14.88307405  2386
TWILIGHT AA             
1 67387U 26004AA  26027.61258095  .00007053  00000+0  76256-3 0  9999
2 67387  97.8019  28.5317 0003124 164.0418 196.0898 14.88599065  2386
TWILIGHT AB             
1 67388U 26004AB  26027.61124106  .00006879  00000+0  74204-3 0  9991
2 67388  97.8008  28.5327 0002774 150.2571 209.8804 14.88701466  2383
TWILIGHT AC             
1 67389U 26004AC  26027.57810477  .00006600  00000+0  33695-3 0  9991
2 67389  97.4566  28.6899 0005265 102.0375 258.1449 15.17027014  2429
CONNECTA IOT-16         
1 67390U 26004AD  26027.57760542  .00012605  00000+0  63958-3 0  9997
2 67390  97.4568  28.6917 0005519 100.7079 259.4776 15.17048195  2422
TWILIGHT AE             
1 67391U 26004AE  26027.50962694  .00007577  00000+0  38423-3 0  9994
2 67391  97.4518  28.6185 0006880  96.4939 263.7079 15.17206384  2412
TWILIGHT AF             
1 67392U 26004AF  26027.57297439 -.00010498  00000+0 -51514-3 0  9994
2 67392  97.4471  28.6809 0007417 102.0559 258.1507 15.17910469  2424
TWILIGHT AG             
1 67393U 26004AG  26027.30829564  .00025425  00000+0  12535-2 0  9999
2 67393  97.4540  28.4277 0007861 107.9187 252.2905 15.17889338  2385
