CCSDS_OMM_VERS = 2.0
CREATION_DATE  = 
ORIGINATOR     = 

OBJECT_NAME    = TWILIGHT V
OBJECT_ID      = 2026-004V
CENTER_NAME    = EARTH
REF_FRAME      = TEME
TIME_SYSTEM    = UTC
MEAN_ELEMENT_THEORY = SGP/SGP4

EPOCH          = 2026-01-27T14:50:43.475136
MEAN_MOTION    = 14.88003006
ECCENTRICITY   = .00036725
INCLINATION    = 97.8002
RA_OF_ASC_NODE = 28.5236
ARG_OF_PERICENTER = 207.4066
MEAN_ANOMALY   = 152.6957

EPHEMERIS_TYPE = 0
CLASSIFICATION_TYPE = U
NORAD_CAT_ID   = 67382
ELEMENT_SET_NO = 999
REV_AT_EPOCH   = 238
BSTAR          = .54242006E-3
MEAN_MOTION_DOT = .4926E-4
MEAN_MOTION_DDOT = 0

CCSDS_OMM_VERS = 2.0
CREATION_DATE  = 
ORIGINATOR     = 

OBJECT_NAME    = TWILIGHT W
OBJECT_ID      = 2026-004W
CENTER_NAME    = EARTH
REF_FRAME      = TEME
TIME_SYSTEM    = UTC
MEAN_ELEMENT_THEORY = SGP/SGP4

EPOCH          = 2026-01-27T13:18:07.677792
MEAN_MOTION    = 14.87726416
ECCENTRICITY   = .00040313
INCLINATION    = 97.7978
RA_OF_ASC_NODE = 28.4511
ARG_OF_PERICENTER = 227.2349
MEAN_ANOMALY   = 132.8529

EPHEMERIS_TYPE = 0
CLASSIFICATION_TYPE = U
NORAD_CAT_ID   = 67383
ELEMENT_SET_NO = 999
REV_AT_EPOCH   = 237
BSTAR          = .54391205E-3
MEAN_MOTION_DOT = .4906E-4
MEAN_MOTION_DDOT = 0

CCSDS_OMM_VERS = 2.0
CREATION_DATE  = 
ORIGINATOR     = 

OBJECT_NAME    = TWILIGHT X
OBJECT_ID      = 2026-004X
CENTER_NAME    = EARTH
REF_FRAME      = TEME
TIME_SYSTEM    = UTC
MEAN_ELEMENT_THEORY = SGP/SGP4

EPOCH          = 2026-01-27T14:49:08.615712
MEAN_MOTION    = 14.88196947
ECCENTRICITY   = .00030759
INCLINATION    = 97.7978
RA_OF_ASC_NODE = 28.5224
ARG_OF_PERICENTER = 207.1721
MEAN_ANOMALY   = 152.9335

EPHEMERIS_TYPE = 0
CLASSIFICATION_TYPE = U
NORAD_CAT_ID   = 67384
ELEMENT_SET_NO = 999
REV_AT_EPOCH   = 238
BSTAR          = .10853036E-2
MEAN_MOTION_DOT = .9965E-4
MEAN_MOTION_DDOT = 0

CCSDS_OMM_VERS = 2.0
CREATION_DATE  = 
ORIGINATOR     = 

OBJECT_NAME    = TWILIGHT Y
OBJECT_ID      = 2026-004Y
CENTER_NAME    = EARTH
REF_FRAME      = TEME
TIME_SYSTEM    = UTC
MEAN_ELEMENT_THEORY = SGP/SGP4

EPOCH          = 2026-01-27T14:47:50.283744
MEAN_MOTION    = 14.88277986
ECCENTRICITY   = .00029965
INCLINATION    = 97.7989
RA_OF_ASC_NODE = 28.5248
ARG_OF_PERICENTER = 200.1941
MEAN_ANOMALY   = 159.9158

EPHEMERIS_TYPE = 0
CLASSIFICATION_TYPE = U
NORAD_CAT_ID   = 67385
ELEMENT_SET_NO = 999
REV_AT_EPOCH   = 238
BSTAR          = .10907881E-2
MEAN_MOTION_DOT = .10036E-3
MEAN_MOTION_DDOT = 0

CCSDS_OMM_VERS = 2.0
CREATION_DATE  = 
ORIGINATOR     = 

OBJECT_NAME    = TWILIGHT Z
OBJECT_ID      = 2026-004Z
CENTER_NAME    = EARTH
REF_FRAME      = TEME
TIME_SYSTEM    = UTC
MEAN_ELEMENT_THEORY = SGP/SGP4

EPOCH          = 2026-01-27T14:45:49.288320
MEAN_MOTION    = 14.88307405
ECCENTRICITY   = .00018848
INCLINATION    = 97.7969
RA_OF_ASC_NODE = 28.5255
ARG_OF_PERICENTER = 196.5393
MEAN_ANOMALY   = 163.5762

EPHEMERIS_TYPE = 0
CLASSIFICATION_TYPE = U
NORAD_CAT_ID   = 67386
ELEMENT_SET_NO = 999
REV_AT_EPOCH   = 238
BSTAR          = .4952644E-3
MEAN_MOTION_DOT = .4527E-4
MEAN_MOTION_DDOT = 0

CCSDS_OMM_VERS = 2.0
CREATION_DATE  = 
ORIGINATOR     = 

OBJECT_NAME    = TWILIGHT AA
OBJECT_ID      = 2026-004AA
CENTER_NAME    = EARTH
REF_FRAME      = TEME
TIME_SYSTEM    = UTC
MEAN_ELEMENT_THEORY = SGP/SGP4

EPOCH          = 2026-01-27T14:42:06.994080
MEAN_MOTION    = 14.88599065
ECCENTRICITY   = .00031243
INCLINATION    = 97.8019
RA_OF_ASC_NODE = 28.5317
ARG_OF_PERICENTER = 164.0418
MEAN_ANOMALY   = 196.0898

EPHEMERIS_TYPE = 0
CLASSIFICATION_TYPE = U
NORAD_CAT_ID   = 67387
ELEMENT_SET_NO = 999
REV_AT_EPOCH   = 238
BSTAR          = .76256275E-3
MEAN_MOTION_DOT = .7053E-4
MEAN_MOTION_DDOT = 0

CCSDS_OMM_VERS = 2.0
CREATION_DATE  = 
ORIGINATOR     = 

OBJECT_NAME    = TWILIGHT AB
OBJECT_ID      = 2026-004AB
CENTER_NAME    = EARTH
REF_FRAME      = TEME
TIME_SYSTEM    = UTC
MEAN_ELEMENT_THEORY = SGP/SGP4

EPOCH          = 2026-01-27T14:40:11.227584
MEAN_MOTION    = 14.88701466
ECCENTRICITY   = .00027749
INCLINATION    = 97.8008
RA_OF_ASC_NODE = 28.5327
ARG_OF_PERICENTER = 150.2571
MEAN_ANOMALY   = 209.8804

EPHEMERIS_TYPE = 0
CLASSIFICATION_TYPE = U
NORAD_CAT_ID   = 67388
ELEMENT_SET_NO = 999
REV_AT_EPOCH   = 238
BSTAR          = .7420391E-3
MEAN_MOTION_DOT = .6879E-4
MEAN_MOTION_DDOT = 0

CCSDS_OMM_VERS = 2.0
CREATION_DATE  = 
ORIGINATOR     = 

OBJECT_NAME    = TWILIGHT AC
OBJECT_ID      = 2026-004AC
CENTER_NAME    = EARTH
REF_FRAME      = TEME
TIME_SYSTEM    = UTC
MEAN_ELEMENT_THEORY = SGP/SGP4

EPOCH          = 2026-01-27T13:52:28.252128
MEAN_MOTION    = 15.17027014
ECCENTRICITY   = .00052656
INCLINATION    = 97.4566
RA_OF_ASC_NODE = 28.6899
ARG_OF_PERICENTER = 102.0375
MEAN_ANOMALY   = 258.1449

EPHEMERIS_TYPE = 0
CLASSIFICATION_TYPE = U
NORAD_CAT_ID   = 67389
ELEMENT_SET_NO = 999
REV_AT_EPOCH   = 242
BSTAR          = .33694862E-3
MEAN_MOTION_DOT = .66E-4
MEAN_MOTION_DDOT = 0

CCSDS_OMM_VERS = 2.0
CREATION_DATE  = 
ORIGINATOR     = 

OBJECT_NAME    = CONNECTA IOT-16
OBJECT_ID      = 2026-004AD
CENTER_NAME    = EARTH
REF_FRAME      = TEME
TIME_SYSTEM    = UTC
MEAN_ELEMENT_THEORY = SGP/SGP4

EPOCH          = 2026-01-27T13:51:45.108288
MEAN_MOTION    = 15.17048195
ECCENTRICITY   = .00055191
INCLINATION    = 97.4568
RA_OF_ASC_NODE = 28.6917
ARG_OF_PERICENTER = 100.7079
MEAN_ANOMALY   = 259.4776

EPHEMERIS_TYPE = 0
CLASSIFICATION_TYPE = U
NORAD_CAT_ID   = 67390
ELEMENT_SET_NO = 999
REV_AT_EPOCH   = 242
BSTAR          = .63958362E-3
MEAN_MOTION_DOT = .12605E-3
MEAN_MOTION_DDOT = 0

CCSDS_OMM_VERS = 2.0
CREATION_DATE  = 
ORIGINATOR     = 

OBJECT_NAME    = TWILIGHT AE
OBJECT_ID      = 2026-004AE
CENTER_NAME    = EARTH
REF_FRAME      = TEME
TIME_SYSTEM    = UTC
MEAN_ELEMENT_THEORY = SGP/SGP4

EPOCH          = 2026-01-27T12:13:51.767616
MEAN_MOTION    = 15.17206384
ECCENTRICITY   = .00068807
INCLINATION    = 97.4518
RA_OF_ASC_NODE = 28.6185
ARG_OF_PERICENTER = 96.4939
MEAN_ANOMALY   = 263.7079

EPHEMERIS_TYPE = 0
CLASSIFICATION_TYPE = U
NORAD_CAT_ID   = 67391
ELEMENT_SET_NO = 999
REV_AT_EPOCH   = 241
BSTAR          = .38423133E-3
MEAN_MOTION_DOT = .7577E-4
MEAN_MOTION_DDOT = 0

CCSDS_OMM_VERS = 2.0
CREATION_DATE  = 
ORIGINATOR     = 

OBJECT_NAME    = TWILIGHT AF
OBJECT_ID      = 2026-004AF
CENTER_NAME    = EARTH
REF_FRAME      = TEME
TIME_SYSTEM    = UTC
MEAN_ELEMENT_THEORY = SGP/SGP4

EPOCH          = 2026-01-27T13:45:04.987296
MEAN_MOTION    = 15.17910469
ECCENTRICITY   = .00074174
INCLINATION    = 97.4471
RA_OF_ASC_NODE = 28.6809
ARG_OF_PERICENTER = 102.0559
MEAN_ANOMALY   = 258.1507

EPHEMERIS_TYPE = 0
CLASSIFICATION_TYPE = U
NORAD_CAT_ID   = 67392
ELEMENT_SET_NO = 999
REV_AT_EPOCH   = 242
BSTAR          = -.51514084E-3
MEAN_MOTION_DOT = -.10498E-3
MEAN_MOTION_DDOT = 0

CCSDS_OMM_VERS = 2.0
CREATION_DATE  = 
ORIGINATOR     = 

OBJECT_NAME    = TWILIGHT AG
OBJECT_ID      = 2026-004AG
CENTER_NAME    = EARTH
REF_FRAME      = TEME
TIME_SYSTEM    = UTC
MEAN_ELEMENT_THEORY = SGP/SGP4

EPOCH          = 2026-01-27T07:23:56.743296
MEAN_MOTION    = 15.17889338
ECCENTRICITY   = .00078615
INCLINATION    = 97.4540
RA_OF_ASC_NODE = 28.4277
ARG_OF_PERICENTER = 107.9187
MEAN_ANOMALY   = 252.2905

EPHEMERIS_TYPE = 0
CLASSIFICATION_TYPE = U
NORAD_CAT_ID   = 67393
ELEMENT_SET_NO = 999
REV_AT_EPOCH   = 238
BSTAR          = .12534857E-2
MEAN_MOTION_DOT = .25425E-3
MEAN_MOTION_DDOT = 0

